OSCAR 3 (OSCAR III)     
1 01293U 65016F   10087.98163435 -.00000051  00000-0  17084-5 0  7628
2 01293  70.0727 275.8948 0018206 156.5321 203.6643 14.04768887299808
OSCAR 5 (AO-5)          
1 04321U 70008B   10088.59592207 -.00000031  00000-0  10000-3 0  2971
2 04321 102.1161 110.0022 0027616 160.1184 200.0967 12.52159110836483
OSCAR 6 (AO-6)          
1 06236U 72082B   10087.61914502 -.00000027  00000-0  10000-3 0  2874
2 06236 101.3924  94.4587 0004172  55.2259 304.9206 12.53080591713030
OSCAR 7 (AO-7)          
1 07530U 74089B   10088.39644047 -.00000027  00000-0  10000-3 0  7382
2 07530 101.4064 107.3480 0012130  70.5083 289.7301 12.53577994618452
OSCAR 8 (AO-8)          
1 10703U 78026B   10088.16335714 -.00000150  00000-0 -75048-4 0  7849
2 10703  98.7850 127.2995 0007397  99.4822 260.7180 13.98853335635865
PHASE 3B (AO-10)        
1 14129U 83058B   10087.28749283  .00000151  00000-0  10000-3 0  7247
2 14129  26.0729 103.1508 6074213 311.1245  10.3354  2.05870515173508
UOSAT 2 (UO-11)         
1 14781U 84021B   10086.61048037 -.00000056  00000-0 -27936-6 0  2078
2 14781  98.0655 138.0673 0009647 136.8127 223.3822 14.79781592399745
JAS-1 (FO-12)           
1 16909U 86061B   10088.91083468 -.00000083  00000-0  10000-3 0  7020
2 16909  50.0183   3.5078 0010995 211.0983 148.9189 12.44453468 74557
UOSAT 3 (UO-14)         
1 20437U 90005B   10089.20528434  .00000055  00000-0  36359-4 0  1730
2 20437  98.3820  41.8852 0011512  44.2847 315.9258 14.31569094 53974
UOSAT 4 (UO-15)         
1 20438U 90005C   10088.59155821  .00000007  00000-0  19113-4 0  6694
2 20438  98.4390  35.7436 0010853  76.5727 283.6659 14.30463270 53277
PACSAT (AO-16)          
1 20439U 90005D   10088.52632746  .00000043  00000-0  31452-4 0  8573
2 20439  98.3237  49.6035 0011722  46.6392 313.5765 14.31854211 53987
DOVE (DO-17)            
1 20440U 90005E   10088.39678814  .00000048  00000-0  33244-4 0  5759
2 20440  98.2978  53.4958 0011709  41.7712 318.4368 14.32159392 54112
WEBERSAT (WO-18)        
1 20441U 90005F   10088.65658038  .00000041  00000-0  30550-4 0   828
2 20441  98.3050  52.5472 0012393  44.2607 315.9564 14.31922217 54075
LUSAT (LO-19)           
1 20442U 90005G   10087.97792916  .00000101  00000-0  52852-4 0  7673
2 20442  98.2834  55.2045 0012561  43.9620 316.2562 14.32086914 54077
JAS-1B (FO-20)          
1 20480U 90013C   10089.21139949 -.00000059  00000-0 -52562-4 0  4123
2 20480  99.0443 321.5508 0539637 242.8314 111.6811 12.83363627943596
INFORMATOR 1 & RS-14    
1 21087U 91006A   10089.21349006  .00000036  00000-0  21591-4 0  5444
2 21087  82.9452 194.1409 0034348 204.0089 155.9464 13.75052819961723
COSMOS 2123 & RS-12/13  
1 21089U 91007A   10088.91071393  .00000058  00000-0  45295-4 0  4264
2 21089  82.9196  54.5867 0027524 253.5913 106.2208 13.74492761960446
UOSAT 5 (UO-22)         
1 21575U 91050B   10088.96557880  .00000001  00000-0  14204-4 0  7950
2 21575  98.4850  39.4539 0006540 240.1561 119.8984 14.39709826981820
KITSAT 1 (KO-23)        
1 22077U 92052B   10087.82854278 -.00000037  00000-0  10000-3 0  9867
2 22077  66.0827  90.5069 0009214 212.7870 147.2579 12.86452086828130
ARSENE (AO-24)          
1 22654U 93031B   10086.07232370 -.00000134  00000-0  10000-3 0  3575
2 22654   4.8255 331.8581 2853472 177.5108 184.0918  1.42205369 83143
EYESAT-1 (AO-27)        
1 22825U 93061C   10087.99792339  .00000002  00000-0  17523-4 0  4905
2 22825  98.4776  38.0528 0009143 141.0396 219.1441 14.29291200860599
ITAMSAT (IO-26)         
1 22826U 93061D   10088.98761026  .00000029  00000-0  27983-4 0  2284
2 22826  98.4718  39.6487 0009530 133.1977 227.0006 14.29546394860844
KITSAT 2 (KO-25)        
1 22828U 93061F   10088.89239222  .00000037  00000-0  31005-4 0  4241
2 22828  98.4643  39.3926 0010731 109.0466 251.1881 14.29842625829118
POSAT (PO-28)           
1 22829U 93061G   10088.37685106  .00000048  00000-0  35092-4 0  4489
2 22829  98.4607  40.0500 0010708 107.5403 252.6956 14.30241850861068
RADIO ROSTO (RS-15)     
1 23439U 94085A   10087.67927877 -.00000039  00000-0  10000-3 0  2873
2 23439  64.8170 164.7559 0157365 358.6109   1.4358 11.27554805628190
JAS-2 (FO-29)           
1 24278U 96046B   10088.60564872  .00000013  00000-0  51675-4 0  2741
2 24278  98.5198 288.7209 0350734 330.4661  27.7061 13.52948894672344
UNAMSAT-2 (MO-30)       
1 24305U 96052B   10088.28654965  .00000013  00000-0 -28175-5 0  3816
2 24305  82.9369 143.1976 0029895 177.9539 182.1742 13.73580330679817
TMSAT-1 (TO-31)         
1 25396U 98043C   10088.59758572  .00000004  00000-0  19630-4 0  6594
2 25396  98.3127 106.3787 0003516 108.0136 252.1427 14.23798407608915
TECHSAT 1B (GO-32)      
1 25397U 98043D   10088.72601188 -.00000126  00000-0 -37888-4 0  1474
2 25397  98.3164 100.5483 0002186 118.0591 242.0811 14.23173594608744
SEDSAT 1 (SO-33)        
1 25509U 98061B   10088.78905064  .00000047  00000-0 -34064-5 0  6790
2 25509  31.4333 237.5066 0354420 315.5472  41.7202 14.28296855596695
PAN SAT (PO-34)         
1 25520U 98064B   10088.50260099  .00000655  00000-0  22171-4 0  4605
2 25520  28.4596 144.0647 0005985 175.9803 184.0847 15.17516821632039
ISS (ZARYA)             
1 25544U 98067A   10089.08379750  .00022573  00000-0  15866-3 0  8691
2 25544  51.6448 276.6981 0006568 119.3628 336.7669 15.74035686651012
SUNSAT (SO-35)          
1 25636U 99008C   10088.71964525  .00000035  00000-0  17018-4 0  5708
2 25636  96.4760 209.3322 0149213  38.1575 323.0076 14.43494336584296
UOSAT 12 (UO-36)        
1 25693U 99021A   10088.66089839 -.00000009  00000-0  18189-4 0  1614
2 25693  64.5594 318.7953 0028351 320.5223  39.3813 14.78789434590053
OPAL (OO-38)            
1 26063U 00004C   10088.70801263  .00000016  00000-0  25760-4 0  7635
2 26063 100.2264 292.8615 0036919 177.2147 182.9252 14.35889675532920
SAUDISAT 1A (SO-41)     
1 26545U 00057A   10088.18170258  .00000089  00000-0  30424-4 0  4936
2 26545  64.5591 319.3438 0049108 234.8815 124.7715 14.80668931513392
TIUNGSAT-1 (MO-46)      
1 26548U 00057D   10089.08986058  .00000191  00000-0  41074-4 0  6526
2 26548  64.5535 275.7676 0041789 233.7061 126.0203 14.83462503514365
SAUDISAT 1B (SO-42)     
1 26549U 00057E   10088.90543860 -.00000110  00000-0  52438-5 0  5828
2 26549  64.5608 335.3365 0054077 235.7718 123.8235 14.79522004513132
PHASE 3D (AO-40)        
1 26609U 00072B   10086.02734281 -.00000030  00000-0  10000-3 0  3693
2 26609  10.1266 338.2152 7965708 296.4783   5.4836  1.25586579 43175
PCSAT (NO-44)           
1 26931U 01043C   10087.95911396  .00000160  00000-0  94586-4 0  4200
2 26931  67.0515  50.6742 0006311 262.5270  97.5096 14.29589956443281
SAPPHIRE (NO-45)        
1 26932U 01043D   10088.89264648  .00000254  00000-0  13106-3 0  4264
2 26932  67.0571  48.3113 0008072 257.7580 102.2623 14.29632816443460
IDEFIX & ARIANE 42P R/B 
1 27422U 02021B   10088.73529356  .00000054  00000-0  38596-4 0  2985
2 27422  98.4921 165.9829 0013248 102.5726 257.6949 14.28539117410179
RUBIN-2 & SAFIR-M       
1 27605U 02058A   10088.87336609  .00000047  00000-0  28617-4 0  1489
2 27605  64.5564 223.1888 0035374 115.8650 244.6118 14.72454010391009
SAUDISAT 1C (SO-50)     
1 27607U 02058C   10088.90318097  .00000176  00000-0  49595-4 0  1375
2 27607  64.5570 237.3276 0036092 114.4334 246.0540 14.71518325390719
DTUSAT                  
1 27842U 03031C   10089.05276667  .00000059  00000-0  47127-4 0  7949
2 27842  98.7055 100.0617 0009964  24.2643 335.9017 14.21024785349944
CUTE-1 (CO-55)          
1 27844U 03031E   10088.72352519  .00000032  00000-0  35313-4 0  8121
2 27844  98.7121  98.8350 0010663  43.5681 316.6321 14.20693809349809
AAU CUBESAT             
1 27846U 03031G   10088.98195091  .00000060  00000-0  47915-4 0  7155
2 27846  98.7043  99.9831 0010207  22.6746 337.4878 14.21024536349932
CANX-1                  
1 27847U 03031H   10088.50157994  .00000050  00000-0  43036-4 0  7333
2 27847  98.7037  99.4967 0010040  24.3235 335.8425 14.21003078349813
CUBESAT XI-IV (CO-57)   
1 27848U 03031J   10088.74154509  .00000053  00000-0  45213-4 0  7634
2 27848  98.7164  97.9353 0010614  48.1726 312.0343 14.20488514349764
MOZHAYETS 4 (RS-22)     
1 27939U 03042A   10088.67276628  .00000119  00000-0  31804-4 0   442
2 27939  97.9048 317.4829 0012835 314.7559  45.2600 14.63397074347326
ECHO (AO-51)            
1 28375U 04025K   10088.48705668  .00000047  00000-0  26874-4 0  6389
2 28375  98.0597  86.5333 0084524 339.9713  19.8169 14.40676271302031
HAMSAT (VO-52)          
1 28650U 05017B   10089.19109371  .00000661  00000-0  89918-4 0  4675
2 28650  97.7012 145.6763 0027352 172.4612 187.7062 14.81711929264997
UWE-1                   
1 28892U 05043C   10088.72781071  .00000169  00000-0  44641-4 0  5918
2 28892  98.0235 335.1054 0017309 170.5768 189.5777 14.59839686235501
SSETI EXPRESS (XO-53)   
1 28894U 05043E   10088.29728343  .00000051  00000-0  20037-4 0  7268
2 28894  98.0215 334.8766 0017444 174.1448 185.9952 14.59716105235440
CUBESAT XI-V (CO-58)    
1 28895U 05043F   10088.68141609  .00000221  00000-0  55483-4 0  5479
2 28895  98.0262 335.7448 0017986 171.0401 189.1117 14.59866252235387
NCUBE-2                 
1 28897U 05043H   10088.15569908  .00000206  00000-0  52208-4 0  1076
2 28897  98.0235 335.1327 0017041 172.9155 187.2280 14.60050395227608
PEHUENSAT 1 (PO-63)     
1 29712U 07001D   10088.25223772  .00001384  00000-0  18520-3 0  1847
2 29712  97.7902 142.3170 0015236  69.1179 291.1717 14.80957884173659
CUTE-1.7+APD II (CO-65) 
1 32785U 08021C   10088.20457821  .00000362  00000-0  52680-4 0  6401
2 32785  97.9038 154.2110 0015014 180.6436 179.4834 14.81613296103647
DELFI-C3 (DO-64)        
1 32789U 08021G   10088.31358078  .00000751  00000-0  10104-3 0  6418
2 32789  97.9074 154.6439 0016067 180.2827 179.8370 14.82037818103671
YUBILEINY (RS-30)       
1 32953U 08025A   10087.96177934  .00000010  00000-0  00000+0 0  5591
2 32953  82.4965  79.5645 0017420 279.4578  80.4534 12.43004517 83776
PRISM                   
1 33493U 09002B   10089.06887747  .00000632  00000-0  88541-4 0  3397
2 33493  98.0749 207.9333 0020848  40.3250 319.9496 14.80914895 63777
STARS                   
1 33498U 09002G   10089.16372139  .00000475  00000-0  84653-4 0   636
2 33498  98.0501 200.5804 0013947 130.5845 229.6572 14.71441874 63363
KKS-1                   
1 33499U 09002H   10088.80553822  .00000037  00000-0  14137-4 0   709
2 33499  98.0512 199.8696 0010876 128.3765 231.8426 14.70773445 63284
ANDE POLLUX SPHERE      
1 35693U 09038E   10087.99866888  .23496735  12787-4  17715-3 0  3529
2 35693  51.6099 254.5746 0006270 294.4866  97.5899 16.52338462 38395
ANDE CASTOR SPHERE      
1 35694U 09038F   10088.97902174  .00056163  12344-4  18031-3 0  2474
2 35694  51.6372 260.7997 0003578 245.6776 114.3856 15.91420678 38409
SUMBANDILA (SO-67)      
1 35870U 09049F   10089.06278469  .00001004  00000-0  46405-4 0  5821
2 35870  97.3408 140.1882 0008440 344.9466 102.9090 15.22422142 29425
HOPE-1 (HO-68)          
1 36122U 09072B   10088.74364534 -.00000045  00000-0  00000+0 0  1682
2 36122 100.4780 149.9526 0007535 154.5981 205.5508 13.16280088 13764
